{
  "norad_id": 61243,
  "name": "STARLINK-11300 [DTC]",
  "history": [
    {
      "epoch": "2026-03-28T20:06:57.586464",
      "apogee_km": 360.3614751753821,
      "perigee_km": 358.936298704577,
      "latitude_deg": 2.3803275699954223,
      "longitude_deg": 24.763984960038215,
      "semi_major_axis_km": 6737.785886939979,
      "eccentricity": 0.00010576,
      "inclination_deg": 53.1606,
      "raan_deg": 321.8986,
      "arg_perigee_deg": 75.9237,
      "mean_anomaly_deg": 284.1899,
      "mean_motion_rev_day": 15.6973721
    }
  ]
}